{"type": "FeatureCollection", "features": [ {"type": "Feature", "properties": {"norad_id": 30358, "name": "FENGYUN 1C DEB", "group": "fengyun-1c-debris", "lat": 0.9868359549848262, "lon": -3.877991321363772, "alt_km": 769.9750976980677, "timestamp": "2025-12-12T20:43:07.310908+00:00", "meta": {"OBJECT_NAME": "FENGYUN 1C DEB", "OBJECT_ID": "1999-025ABV", "EPOCH": "2025-12-12T07:12:14.560128", "MEAN_MOTION": 14.20663788, "ECCENTRICITY": 0.00826892, "INCLINATION": 98.5541, "RA_OF_ASC_NODE": 175.4285, "ARG_OF_PERICENTER": 200.851, "MEAN_ANOMALY": 340.0181, "EPHEMERIS_TYPE": 0, "CLASSIFICATION_TYPE": "U", "NORAD_CAT_ID": 30358, "ELEMENT_SET_NO": 999, "REV_AT_EPOCH": 96911, "BSTAR": 0.0027277378, "MEAN_MOTION_DOT": 6.043e-05, "MEAN_MOTION_DDOT": 0}, "tle": {"line1": "1 30358U 99025ABV 25346.30016852  .00006043  00000+0  27277-2 0  9998", "line2": "2 30358  98.5541 175.4285 0082689 200.8510 340.0181 14.20663788969112"}}, "geometry": {"type": "Point", "coordinates": [-3.877991321363772, 0.9868359549848262]}}, {"type": "Feature", "properties": {"norad_id": 30359, "name": "FENGYUN 1C DEB", "group": "fengyun-1c-debris", "lat": -7.539836275860926, "lon": -8.964896652297098, "alt_km": 1013.8579700141108, "timestamp": "2025-12-12T20:43:07.310918+00:00", "meta": {"OBJECT_NAME": "FENGYUN 1C DEB", "OBJECT_ID": "1999-025ABW", "EPOCH": "2025-12-12T06:02:09.219840", "MEAN_MOTION": 13.93995757, "ECCENTRICITY": 0.01453208, "INCLINATION": 101.6276, "RA_OF_ASC_NODE": 171.8289, "ARG_OF_PERICENTER": 343.773, "MEAN_ANOMALY": 15.8795, "EPHEMERIS_TYPE": 0, "CLASSIFICATION_TYPE": "U", "NORAD_CAT_ID": 30359, "ELEMENT_SET_NO": 999, "REV_AT_EPOCH": 95062, "BSTAR": 0.0035010887, "MEAN_MOTION_DOT": 4.992e-05, "MEAN_MOTION_DDOT": 0}, "tle": {"line1": "1 30359U 99025ABW 25346.25149560  .00004992  00000+0  35011-2 0  9992", "line2": "2 30359 101.6276 171.8289 0145320 343.7730  15.8795 13.93995757950628"}}, "geometry": {"type": "Point", "coordinates": [-8.964896652297098, -7.539836275860926]}}, {"type": "Feature", "properties": {"norad_id": 30360, "name": "FENGYUN 1C DEB", "group": "fengyun-1c-debris", "lat": -34.0444555280154, "lon": -129.5216944994337, "alt_km": 801.2107423469661, "timestamp": "2025-12-12T20:43:07.310928+00:00", "meta": {"OBJECT_NAME": "FENGYUN 1C DEB", "OBJECT_ID": "1999-025ABX", "EPOCH": "2025-12-11T03:36:10.327392", "MEAN_MOTION": 14.26482195, "ECCENTRICITY": 0.00314589, "INCLINATION": 98.765, "RA_OF_ASC_NODE": 54.747, "ARG_OF_PERICENTER": 150.9979, "MEAN_ANOMALY": 270.3357, "EPHEMERIS_TYPE": 0, "CLASSIFICATION_TYPE": "U", "NORAD_CAT_ID": 30360, "ELEMENT_SET_NO": 999, "REV_AT_EPOCH": 97402, "BSTAR": 0.0024281333, "MEAN_MOTION_DOT": 5.839e-05, "MEAN_MOTION_DDOT": 0}, "tle": {"line1": "1 30360U 99025ABX 25345.15011953  .00005839  00000+0  24281-2 0  9994", "line2": "2 30360  98.7650  54.7470 0031458 150.9979 270.3357 14.26482195974028"}}, "geometry": {"type": "Point", "coordinates": [-129.5216944994337, -34.0444555280154]}}, {"type": "Feature", "properties": {"norad_id": 30361, "name": "FENGYUN 1C DEB", "group": "fengyun-1c-debris", "lat": -45.84199892624939, "lon": 31.72138752478063, "alt_km": 803.0364779533156, "timestamp": "2025-12-12T20:43:07.310938+00:00", "meta": {"OBJECT_NAME": "FENGYUN 1C DEB", "OBJECT_ID": "1999-025ABY", "EPOCH": "2025-12-12T00:43:04.700064", "MEAN_MOTION": 14.25349867, "ECCENTRICITY": 0.0065292, "INCLINATION": 98.5693, "RA_OF_ASC_NODE": 21.9741, "ARG_OF_PERICENTER": 32.8327, "MEAN_ANOMALY": 327.6883, "EPHEMERIS_TYPE": 0, "CLASSIFICATION_TYPE": "U", "NORAD_CAT_ID": 30361, "ELEMENT_SET_NO": 999, "REV_AT_EPOCH": 97606, "BSTAR": 0.0013333, "MEAN_MOTION_DOT": 3.171e-05, "MEAN_MOTION_DDOT": 0}, "tle": {"line1": "1 30361U 99025ABY 25346.02991551  .00003171  00000+0  13333-2 0  9996", "line2": "2 30361  98.5693  21.9741 0065292  32.8327 327.6883 14.25349867976062"}}, "geometry": {"type": "Point", "coordinates": [31.72138752478063, -45.84199892624939]}}, {"type": "Feature", "properties": {"norad_id": 30362, "name": "FENGYUN 1C DEB", "group": "fengyun-1c-debris", "lat": -46.300303075853286, "lon": -80.7344715644764, "alt_km": 799.6144425549091, "timestamp": "2025-12-12T20:43:07.310949+00:00", "meta": {"OBJECT_NAME": "FENGYUN 1C DEB", "OBJECT_ID": "1999-025ABZ", "EPOCH": "2025-12-10T06:00:17.959104", "MEAN_MOTION": 14.11790293, "ECCENTRICITY": 0.009597, "INCLINATION": 99.0483, "RA_OF_ASC_NODE": 267.0313, "ARG_OF_PERICENTER": 350.4567, "MEAN_ANOMALY": 9.4778, "EPHEMERIS_TYPE": 0, "CLASSIFICATION_TYPE": "U", "NORAD_CAT_ID": 30362, "ELEMENT_SET_NO": 999, "REV_AT_EPOCH": 96133, "BSTAR": 0.0042327, "MEAN_MOTION_DOT": 8.022e-05, "MEAN_MOTION_DDOT": 0}, "tle": {"line1": "1 30362U 99025ABZ 25344.25020786  .00008022  00000+0  42327-2 0  9998", "line2": "2 30362  99.0483 267.0313 0095970 350.4567   9.4778 14.11790293961335"}}, "geometry": {"type": "Point", "coordinates": [-80.7344715644764, -46.300303075853286]}}, {"type": "Feature", "properties": {"norad_id": 30363, "name": "FENGYUN 1C DEB", "group": "fengyun-1c-debris", "lat": -29.28776953594485, "lon": -127.11613285703051, "alt_km": 898.2747425753614, "timestamp": "2025-12-12T20:43:07.310959+00:00", "meta": {"OBJECT_NAME": "FENGYUN 1C DEB", "OBJECT_ID": "1999-025ACA", "EPOCH": "2025-12-09T15:28:09.507936", "MEAN_MOTION": 14.16849111, "ECCENTRICITY": 0.0079456, "INCLINATION": 99.0304, "RA_OF_ASC_NODE": 54.7348, "ARG_OF_PERICENTER": 48.2589, "MEAN_ANOMALY": 312.5343, "EPHEMERIS_TYPE": 0, "CLASSIFICATION_TYPE": "U", "NORAD_CAT_ID": 30363, "ELEMENT_SET_NO": 999, "REV_AT_EPOCH": 96780, "BSTAR": 0.0021732, "MEAN_MOTION_DOT": 4.448e-05, "MEAN_MOTION_DDOT": 0}, "tle": {"line1": "1 30363U 99025ACA 25343.64455449  .00004448  00000+0  21732-2 0  9994", "line2": "2 30363  99.0304  54.7348 0079456  48.2589 312.5343 14.16849111967807"}}, "geometry": {"type": "Point", "coordinates": [-127.11613285703051, -29.28776953594485]}}, {"type": "Feature", "properties": {"norad_id": 30364, "name": "FENGYUN 1C DEB", "group": "fengyun-1c-debris", "lat": -27.903996792918687, "lon": -92.4587282622444, "alt_km": 605.8479044646974, "timestamp": "2025-12-12T20:43:07.310970+00:00", "meta": {"OBJECT_NAME": "FENGYUN 1C DEB", "OBJECT_ID": "1999-025ACB", "EPOCH": "2025-12-11T17:51:47.387808", "MEAN_MOTION": 14.17075043, "ECCENTRICITY": 0.03325399, "INCLINATION": 98.1357, "RA_OF_ASC_NODE": 262.1704, "ARG_OF_PERICENTER": 323.306, "MEAN_ANOMALY": 62.5716, "EPHEMERIS_TYPE": 0, "CLASSIFICATION_TYPE": "U", "NORAD_CAT_ID": 30364, "ELEMENT_SET_NO": 999, "REV_AT_EPOCH": 95627, "BSTAR": 0.0049250529, "MEAN_MOTION_DOT": 0.00017083, "MEAN_MOTION_DDOT": 0}, "tle": {"line1": "1 30364U 99025ACB 25345.74429847  .00017083  00000+0  49251-2 0  9996", "line2": "2 30364  98.1357 262.1704 0332539 323.3060  62.5716 14.17075043956273"}}, "geometry": {"type": "Point", "coordinates": [-92.4587282622444, -27.903996792918687]}}, {"type": "Feature", "properties": {"norad_id": 30365, "name": "FENGYUN 1C DEB", "group": "fengyun-1c-debris", "lat": 12.956531780162717, "lon": 163.2406080935982, "alt_km": 759.537807148884, "timestamp": "2025-12-12T20:43:07.310980+00:00", "meta": {"OBJECT_NAME": "FENGYUN 1C DEB", "OBJECT_ID": "1999-025ACC", "EPOCH": "2025-12-11T12:22:45.520896", "MEAN_MOTION": 14.19227851, "ECCENTRICITY": 0.01679364, "INCLINATION": 98.6191, "RA_OF_ASC_NODE": 339.9295, "ARG_OF_PERICENTER": 114.9226, "MEAN_ANOMALY": 9.6188, "EPHEMERIS_TYPE": 0, "CLASSIFICATION_TYPE": "U", "NORAD_CAT_ID": 30365, "ELEMENT_SET_NO": 999, "REV_AT_EPOCH": 97595, "BSTAR": 0.0002936492, "MEAN_MOTION_DOT": 6.67e-06, "MEAN_MOTION_DDOT": 0}, "tle": {"line1": "1 30365U 99025ACC 25345.51580464  .00000667  00000+0  29365-3 0  9990", "line2": "2 30365  98.6191 339.9295 0167936 114.9226   9.6188 14.19227851975957"}}, "geometry": {"type": "Point", "coordinates": [163.2406080935982, 12.956531780162717]}}, {"type": "Feature", "properties": {"norad_id": 30366, "name": "FENGYUN 1C DEB", "group": "fengyun-1c-debris", "lat": -76.47419329926858, "lon": 43.580940045375954, "alt_km": 753.6041470815044, "timestamp": "2025-12-12T20:43:07.310990+00:00", "meta": {"OBJECT_NAME": "FENGYUN 1C DEB", "OBJECT_ID": "1999-025ACD", "EPOCH": "2025-12-12T06:41:12.646176", "MEAN_MOTION": 14.33486808, "ECCENTRICITY": 0.0062098, "INCLINATION": 98.9227, "RA_OF_ASC_NODE": 263.7531, "ARG_OF_PERICENTER": 220.711, "MEAN_ANOMALY": 263.1377, "EPHEMERIS_TYPE": 0, "CLASSIFICATION_TYPE": "U", "NORAD_CAT_ID": 30366, "ELEMENT_SET_NO": 999, "REV_AT_EPOCH": 98316, "BSTAR": 0.00086703163, "MEAN_MOTION_DOT": 2.402e-05, "MEAN_MOTION_DDOT": 0}, "tle": {"line1": "1 30366U 99025ACD 25346.27861859  .00002402  00000+0  86703-3 0  9993", "line2": "2 30366  98.9227 263.7531 0062098 220.7110 263.1377 14.33486808983163"}}, "geometry": {"type": "Point", "coordinates": [43.580940045375954, -76.47419329926858]}}, {"type": "Feature", "properties": {"norad_id": 30368, "name": "FENGYUN 1C DEB", "group": "fengyun-1c-debris", "lat": 37.761128539658294, "lon": -80.01706131437685, "alt_km": 1110.310241938977, "timestamp": "2025-12-12T20:43:07.311000+00:00", "meta": {"OBJECT_NAME": "FENGYUN 1C DEB", "OBJECT_ID": "1999-025ACF", "EPOCH": "2025-12-12T06:11:36.052224", "MEAN_MOTION": 13.7536458, "ECCENTRICITY": 0.0186058, "INCLINATION": 99.1883, "RA_OF_ASC_NODE": 92.1974, "ARG_OF_PERICENTER": 309.3169, "MEAN_ANOMALY": 77.7231, "EPHEMERIS_TYPE": 0, "CLASSIFICATION_TYPE": "U", "NORAD_CAT_ID": 30368, "ELEMENT_SET_NO": 999, "REV_AT_EPOCH": 94655, "BSTAR": 0.00063495684, "MEAN_MOTION_DOT": 6.48e-06, "MEAN_MOTION_DDOT": 0}, "tle": {"line1": "1 30368U 99025ACF 25346.25805616  .00000648  00000+0  63496-3 0  9996", "line2": "2 30368  99.1883  92.1974 0186058 309.3169  77.7231 13.75364580946559"}}, "geometry": {"type": "Point", "coordinates": [-80.01706131437685, 37.761128539658294]}}]}